OBJECT_NAME,OBJECT_ID,EPOCH,MEAN_MOTION,ECCENTRICITY,INCLINATION,RA_OF_ASC_NODE,ARG_OF_PERICENTER,MEAN_ANOMALY,EPHEMERIS_TYPE,CLASSIFICATION_TYPE,NORAD_CAT_ID,ELEMENT_SET_NO,REV_AT_EPOCH,BSTAR,MEAN_MOTION_DOT,MEAN_MOTION_DDOT
ONEWEB-0597,2022-166X,2026-07-15T12:32:16.617984,13.21824205,.00019876,87.9233,238.3480,94.7473,265.3888,0,U,54663,999,17528,.15816495E-3,.78E-6,0
ONEWEB-0600,2022-166Y,2026-07-15T12:05:39.378336,13.21825515,.00019745,87.9236,238.3427,102.1132,258.0223,0,U,54664,999,17525,.3218575E-4,.26E-6,0
ONEWEB-0601,2022-166Z,2026-07-15T11:53:31.809984,13.21825180,.00018151,87.9234,238.3603,95.0094,265.1247,0,U,54665,999,17544,-.38222035E-4,-.3E-7,0
ONEWEB-0602,2022-166AA,2026-07-15T12:52:51.891744,13.21823924,.00019384,87.9232,238.3581,101.9484,258.1867,0,U,54666,999,17529,.21100613E-3,.1E-5,0
ONEWEB-0603,2022-166AB,2026-07-15T13:01:20.272800,13.21823847,.00019783,87.9243,238.3169,96.4083,263.7277,0,U,54667,999,17522,.21482149E-3,.102E-5,0
ONEWEB-0604,2022-166AC,2026-07-15T03:39:22.056768,13.21823755,.00021209,87.9244,238.4103,97.3522,262.7853,0,U,54668,999,17513,.15091343E-3,.75E-6,0
ONEWEB-0605,2022-166AD,2026-07-15T12:34:41.662848,13.21824072,.00019072,87.9235,238.3471,78.0609,282.0738,0,U,54669,999,17525,.17770626E-3,.86E-6,0
ONEWEB-0606,2022-166AE,2026-07-15T13:06:11.386368,13.21825238,.0002183,87.9233,238.3553,99.2838,260.8542,0,U,54670,999,17531,.12077E-3,.63E-6,0
ONEWEB-0607,2022-166AF,2026-07-15T12:17:45.921984,13.21825833,.00019005,87.9241,238.3348,97.2878,262.8472,0,U,54671,999,17528,.89821136E-4,.5E-6,0
ONEWEB-0608,2022-166AG,2026-07-15T12:27:25.305696,13.21823784,.00017106,87.9243,238.3309,85.4497,274.6833,0,U,54672,999,17529,-.17702508E-4,.6E-7,0
ONEWEB-0610,2022-166AH,2026-07-15T11:58:23.073024,13.21827028,.00014934,87.9235,238.3465,93.0124,267.1181,0,U,54673,999,17519,.27642488E-3,.127E-5,0
ONEWEB-0611,2022-166AJ,2026-07-15T11:48:39.658752,13.21825932,.00022063,87.9234,238.3434,97.7501,262.3883,0,U,54674,999,17518,-.11035617E-3,-.33E-6,0
ONEWEB-0612,2022-166AK,2026-07-15T12:08:03.855552,13.21826631,.00019198,87.9246,238.3394,94.1816,265.9538,0,U,54675,999,17517,.11704315E-3,.61E-6,0
ONEWEB-0615,2022-166AL,2026-07-15T11:38:58.803648,13.21823373,.00022486,87.9237,238.3554,103.5117,256.6268,0,U,54676,999,17518,.2895904E-4,.25E-6,0
ONEWEB-0655,2022-166AM,2026-07-15T12:54:04.527360,13.21823888,.00018955,87.9233,238.3460,100.3082,259.8266,0,U,54677,999,17518,.23752587E-3,.111E-5,0
ONEWEB-0659,2022-166AN,2026-07-15T11:29:18.043584,13.21824891,.00021613,87.9230,238.3575,94.0130,266.1251,0,U,54678,999,17526,.59086861E-4,.37E-6,0
ONEWEB-0685,2022-166AP,2026-07-15T11:28:45.296256,13.21848035,.00017415,87.9229,238.3490,91.3951,268.7382,0,U,54679,999,17515,.20205085E-4,.21E-6,0
ONEWEB-0712,2022-166AQ,2026-07-15T22:31:56.696160,13.16595994,.00018453,87.9080,223.0635,106.5736,253.5598,0,U,54680,999,17584,.11425255E-3,.57E-6,0
ONEWEB-0714,2022-166AR,2026-07-15T11:36:35.144640,13.21826094,.00020538,87.9233,238.3461,105.3319,254.8042,0,U,54681,999,17527,.31611993E-4,.26E-6,0
ONEWEB-0532,2023-004A,2026-07-15T23:08:25.776672,13.17648601,.00019438,87.9143,0.1387,82.3680,277.7672,0,U,55140,999,17137,-.14476534E-3,-.43E-6,0
ONEWEB-0533,2023-004B,2026-07-15T21:27:10.063008,13.12441723,.00016614,87.8967,344.9623,96.4453,263.6864,0,U,55141,999,17182,-.10548825E-2,-.367E-5,0
ONEWEB-0541,2023-004C,2026-07-15T22:42:31.246272,13.11416835,.00020281,87.8892,15.3333,88.9203,271.2157,0,U,55142,999,16971,.16053721E-2,.582E-5,0
ONEWEB-0543,2023-004D,2026-07-15T22:06:19.783584,13.18687165,.00018922,87.9189,329.7537,105.4518,254.6823,0,U,55143,999,17348,.13967616E-4,.18E-6,0
ONEWEB-0544,2023-004E,2026-07-15T21:56:36.739968,13.18687410,.00020574,87.9188,329.7549,101.3329,258.8035,0,U,55144,999,17348,-.7709633E-4,-.17E-6,0
ONEWEB-0560,2023-004F,2026-07-15T21:46:54.532704,13.18684827,.000209,87.9189,329.7458,104.3879,255.7485,0,U,55145,999,17349,-.60263888E-4,-.11E-6,0
ONEWEB-0565,2023-004G,2026-07-15T21:37:12.065376,13.18686857,.00022927,87.9180,329.7722,94.1806,265.9589,0,U,55146,999,17348,-.14368823E-3,-.44E-6,0
ONEWEB-0567,2023-004H,2026-07-15T21:27:28.820448,13.18687371,.00022692,87.9188,329.7604,98.7926,261.3463,0,U,55147,999,17348,-.19271083E-3,-.63E-6,0
ONEWEB-0569,2023-004J,2026-07-15T21:06:21.468096,13.13472678,.00022762,87.8969,314.5101,146.7128,213.4145,0,U,55148,999,17394,-.28176579E-2,-.1016E-4,0
ONEWEB-0570,2023-004K,2026-07-15T21:15:20.475360,13.18686235,.00020513,87.9187,329.7599,87.7311,272.4056,0,U,55149,999,17347,-.12212547E-3,-.35E-6,0
ONEWEB-0571,2023-004L,2026-07-15T21:05:38.891040,13.18686711,.00030695,87.9186,329.7604,96.0009,264.1473,0,U,55150,999,17348,-.46730075E-3,-.171E-5,0
